CENTAURI-6              
1 59451U 24066K   26068.32290132  .00007311  00000+0  52686-3 0  9997
2 59451  45.6063  55.7055 0002534 285.4438  74.6166 15.04786474105074
STARLINK-33793          
1 64165U 25112V   26068.72427462  .00003867  00000+0  27204-3 0  9990
2 64165  97.6020 121.5618 0001562 108.9125 251.2271 15.05648635 43316
